UNISAT-7                
1 47945U 21022P   26068.68647639  .00017358  00000+0  47083-3 0  9995
2 47945  97.3969 332.7353 0011703  74.8463 285.4075 15.37617151274555
ROCK                    
1 60474U 24149G   26068.19607664  .00018108  00000+0  50801-3 0  9996
2 60474  97.3809 151.0147 0001119 196.9909 163.1298 15.36627496 86893
